{"type": "FeatureCollection", "features": [ {"type": "Feature", "properties": {"norad_id": 39122, "name": "EUTELSAT 117 WEST A", "group": "eutelsat", "lat": -0.025307197767313987, "lon": -143.9876624449152, "alt_km": 35777.121499283545, "timestamp": "2025-12-09T16:56:36.251648+00:00", "meta": {"OBJECT_NAME": "EUTELSAT 117 WEST A", "OBJECT_ID": "2013-012A", "EPOCH": "2025-12-09T12:18:58.415040", "MEAN_MOTION": 1.00270744, "ECCENTRICITY": 0.0003068, "INCLINATION": 0.0128, "RA_OF_ASC_NODE": 348.6462, "ARG_OF_PERICENTER": 271.9802, "MEAN_ANOMALY": 245.8171, "EPHEMERIS_TYPE": 0, "CLASSIFICATION_TYPE": "U", "NORAD_CAT_ID": 39122, "ELEMENT_SET_NO": 999, "REV_AT_EPOCH": 4653, "BSTAR": 0, "MEAN_MOTION_DOT": -1e-07, "MEAN_MOTION_DDOT": 0}, "tle": {"line1": "1 39122U 13012A   25343.51317610 -.00000010  00000+0  00000+0 0  9995", "line2": "2 39122   0.0128 348.6462 0003068 271.9802 245.8171  1.00270744 46530"}}, "geometry": {"type": "Point", "coordinates": [-143.9876624449152, -0.025307197767313987]}}, {"type": "Feature", "properties": {"norad_id": 39163, "name": "EUTELSAT 7B", "group": "eutelsat", "lat": -0.042228874672216046, "lon": -20.149597443948057, "alt_km": 35768.78137222286, "timestamp": "2025-12-09T16:56:36.251661+00:00", "meta": {"OBJECT_NAME": "EUTELSAT 7B", "OBJECT_ID": "2013-022A", "EPOCH": "2025-12-09T06:50:38.879808", "MEAN_MOTION": 1.00271591, "ECCENTRICITY": 0.0004564, "INCLINATION": 0.0709, "RA_OF_ASC_NODE": 14.2724, "ARG_OF_PERICENTER": 300.205, "MEAN_ANOMALY": 233.45, "EPHEMERIS_TYPE": 0, "CLASSIFICATION_TYPE": "U", "NORAD_CAT_ID": 39163, "ELEMENT_SET_NO": 999, "REV_AT_EPOCH": 4605, "BSTAR": 0, "MEAN_MOTION_DOT": 5e-07, "MEAN_MOTION_DDOT": 0}, "tle": {"line1": "1 39163U 13022A   25343.28517222  .00000050  00000+0  00000+0 0  9999", "line2": "2 39163   0.0709  14.2724 0004564 300.2050 233.4500  1.00271591 46057"}}, "geometry": {"type": "Point", "coordinates": [-20.149597443948057, -0.042228874672216046]}}, {"type": "Feature", "properties": {"norad_id": 39612, "name": "EXPRESS-AT1", "group": "eutelsat", "lat": 0.02219858515786646, "lon": 28.83303737292628, "alt_km": 35788.87321529091, "timestamp": "2025-12-09T16:56:36.251674+00:00", "meta": {"OBJECT_NAME": "EXPRESS-AT1", "OBJECT_ID": "2014-010A", "EPOCH": "2025-12-09T12:19:38.567712", "MEAN_MOTION": 1.00270386, "ECCENTRICITY": 5.8e-05, "INCLINATION": 0.0122, "RA_OF_ASC_NODE": 284.3881, "ARG_OF_PERICENTER": 276.1899, "MEAN_ANOMALY": 118.8303, "EPHEMERIS_TYPE": 0, "CLASSIFICATION_TYPE": "U", "NORAD_CAT_ID": 39612, "ELEMENT_SET_NO": 999, "REV_AT_EPOCH": 4291, "BSTAR": 0, "MEAN_MOTION_DOT": 8.1e-07, "MEAN_MOTION_DDOT": 0}, "tle": {"line1": "1 39612U 14010A   25343.51364083  .00000081  00000+0  00000+0 0  9991", "line2": "2 39612   0.0122 284.3881 0000580 276.1899 118.8303  1.00270386 42914"}}, "geometry": {"type": "Point", "coordinates": [28.83303737292628, 0.02219858515786646]}}, {"type": "Feature", "properties": {"norad_id": 39613, "name": "EXPRESS-AT2", "group": "eutelsat", "lat": 0.01911676445683481, "lon": 112.7038993821183, "alt_km": 35792.48611319537, "timestamp": "2025-12-09T16:56:36.251686+00:00", "meta": {"OBJECT_NAME": "EXPRESS-AT2", "OBJECT_ID": "2014-010B", "EPOCH": "2025-12-09T12:31:36.194016", "MEAN_MOTION": 1.00272381, "ECCENTRICITY": 0.0001562, "INCLINATION": 0.0192, "RA_OF_ASC_NODE": 313.9794, "ARG_OF_PERICENTER": 331.6733, "MEAN_ANOMALY": 120.6248, "EPHEMERIS_TYPE": 0, "CLASSIFICATION_TYPE": "U", "NORAD_CAT_ID": 39613, "ELEMENT_SET_NO": 999, "REV_AT_EPOCH": 4259, "BSTAR": 0, "MEAN_MOTION_DOT": -2.79e-06, "MEAN_MOTION_DDOT": 0}, "tle": {"line1": "1 39613U 14010B   25343.52194669 -.00000279  00000+0  00000+0 0  9994", "line2": "2 39613   0.0192 313.9794 0001562 331.6733 120.6248  1.00272381 42599"}}, "geometry": {"type": "Point", "coordinates": [112.7038993821183, 0.01911676445683481]}}, {"type": "Feature", "properties": {"norad_id": 39773, "name": "EUTELSAT 3B", "group": "eutelsat", "lat": -0.008165057311361447, "lon": -24.000974123754066, "alt_km": 35792.206709962404, "timestamp": "2025-12-09T16:56:36.251699+00:00", "meta": {"OBJECT_NAME": "EUTELSAT 3B", "OBJECT_ID": "2014-030A", "EPOCH": "2025-12-09T06:50:38.879808", "MEAN_MOTION": 1.00271374, "ECCENTRICITY": 0.0004754, "INCLINATION": 0.0634, "RA_OF_ASC_NODE": 341.5597, "ARG_OF_PERICENTER": 246.7119, "MEAN_ANOMALY": 315.7755, "EPHEMERIS_TYPE": 0, "CLASSIFICATION_TYPE": "U", "NORAD_CAT_ID": 39773, "ELEMENT_SET_NO": 999, "REV_AT_EPOCH": 4216, "BSTAR": 0, "MEAN_MOTION_DOT": 2.2e-07, "MEAN_MOTION_DDOT": 0}, "tle": {"line1": "1 39773U 14030A   25343.28517222  .00000022  00000+0  00000+0 0  9995", "line2": "2 39773   0.0634 341.5597 0004754 246.7119 315.7755  1.00271374 42169"}}, "geometry": {"type": "Point", "coordinates": [-24.000974123754066, -0.008165057311361447]}}, {"type": "Feature", "properties": {"norad_id": 40425, "name": "EUTELSAT 115 WEST B", "group": "eutelsat", "lat": 0.009762524442963006, "lon": -142.05936859457603, "alt_km": 35788.020640634655, "timestamp": "2025-12-09T16:56:36.251711+00:00", "meta": {"OBJECT_NAME": "EUTELSAT 115 WEST B", "OBJECT_ID": "2015-010B", "EPOCH": "2025-12-09T10:03:18.436896", "MEAN_MOTION": 1.00267856, "ECCENTRICITY": 2.83e-05, "INCLINATION": 0.0086, "RA_OF_ASC_NODE": 153.759, "ARG_OF_PERICENTER": 289.3308, "MEAN_ANOMALY": 31.2487, "EPHEMERIS_TYPE": 0, "CLASSIFICATION_TYPE": "U", "NORAD_CAT_ID": 40425, "ELEMENT_SET_NO": 999, "REV_AT_EPOCH": 3949, "BSTAR": 0, "MEAN_MOTION_DOT": -2.2e-07, "MEAN_MOTION_DDOT": 0}, "tle": {"line1": "1 40425U 15010B   25343.41896339 -.00000022  00000+0  00000+0 0  9995", "line2": "2 40425   0.0086 153.7590 0000283 289.3308  31.2487  1.00267856 39492"}}, "geometry": {"type": "Point", "coordinates": [-142.05936859457603, 0.009762524442963006]}}, {"type": "Feature", "properties": {"norad_id": 40875, "name": "EUTELSAT 8 WEST B", "group": "eutelsat", "lat": -0.04474912305342243, "lon": -35.10105372263327, "alt_km": 35778.80080428027, "timestamp": "2025-12-09T16:56:36.251723+00:00", "meta": {"OBJECT_NAME": "EUTELSAT 8 WEST B", "OBJECT_ID": "2015-039B", "EPOCH": "2025-12-09T10:06:42.575040", "MEAN_MOTION": 1.00271486, "ECCENTRICITY": 0.0004157, "INCLINATION": 0.0646, "RA_OF_ASC_NODE": 0.7688, "ARG_OF_PERICENTER": 258.855, "MEAN_ANOMALY": 322.481, "EPHEMERIS_TYPE": 0, "CLASSIFICATION_TYPE": "U", "NORAD_CAT_ID": 40875, "ELEMENT_SET_NO": 999, "REV_AT_EPOCH": 3775, "BSTAR": 0, "MEAN_MOTION_DOT": -6.3e-07, "MEAN_MOTION_DDOT": 0}, "tle": {"line1": "1 40875U 15039B   25343.42132610 -.00000063  00000+0  00000+0 0  9996", "line2": "2 40875   0.0646   0.7688 0004157 258.8550 322.4810  1.00271486 37752"}}, "geometry": {"type": "Point", "coordinates": [-35.10105372263327, -0.04474912305342243]}}, {"type": "Feature", "properties": {"norad_id": 41310, "name": "EUTELSAT 9B", "group": "eutelsat", "lat": -0.03364428764482486, "lon": -18.091519638527668, "alt_km": 35781.3217891752, "timestamp": "2025-12-09T16:56:36.251736+00:00", "meta": {"OBJECT_NAME": "EUTELSAT 9B", "OBJECT_ID": "2016-005A", "EPOCH": "2025-12-09T06:50:38.879808", "MEAN_MOTION": 1.00272177, "ECCENTRICITY": 0.000488, "INCLINATION": 0.0363, "RA_OF_ASC_NODE": 53.41, "ARG_OF_PERICENTER": 211.4344, "MEAN_ANOMALY": 285.108, "EPHEMERIS_TYPE": 0, "CLASSIFICATION_TYPE": "U", "NORAD_CAT_ID": 41310, "ELEMENT_SET_NO": 999, "REV_AT_EPOCH": 3621, "BSTAR": 0, "MEAN_MOTION_DOT": 6.4e-07, "MEAN_MOTION_DDOT": 0}, "tle": {"line1": "1 41310U 16005A   25343.28517222  .00000064  00000+0  00000+0 0  9995", "line2": "2 41310   0.0363  53.4100 0004880 211.4344 285.1080  1.00272177 36218"}}, "geometry": {"type": "Point", "coordinates": [-18.091519638527668, -0.03364428764482486]}}, {"type": "Feature", "properties": {"norad_id": 41382, "name": "EUTELSAT 65 WEST A", "group": "eutelsat", "lat": -0.06897929490984524, "lon": -92.3638138624512, "alt_km": 35774.65156826167, "timestamp": "2025-12-09T16:56:36.251748+00:00", "meta": {"OBJECT_NAME": "EUTELSAT 65 WEST A", "OBJECT_ID": "2016-014A", "EPOCH": "2025-12-09T12:38:04.428096", "MEAN_MOTION": 1.0027273, "ECCENTRICITY": 0.0002648, "INCLINATION": 0.0502, "RA_OF_ASC_NODE": 5.1997, "ARG_OF_PERICENTER": 259.4638, "MEAN_ANOMALY": 298.1642, "EPHEMERIS_TYPE": 0, "CLASSIFICATION_TYPE": "U", "NORAD_CAT_ID": 41382, "ELEMENT_SET_NO": 999, "REV_AT_EPOCH": 3563, "BSTAR": 0, "MEAN_MOTION_DOT": -2.74e-06, "MEAN_MOTION_DDOT": 0}, "tle": {"line1": "1 41382U 16014A   25343.52644014 -.00000274  00000+0  00000+0 0  9995", "line2": "2 41382   0.0502   5.1997 0002648 259.4638 298.1642  1.00272730 35636"}}, "geometry": {"type": "Point", "coordinates": [-92.3638138624512, -0.06897929490984524]}}, {"type": "Feature", "properties": {"norad_id": 41589, "name": "EUTELSAT 117 WEST B", "group": "eutelsat", "lat": 0.007341034376604319, "lon": -144.1467513586917, "alt_km": 35786.111413056366, "timestamp": "2025-12-09T16:56:36.251759+00:00", "meta": {"OBJECT_NAME": "EUTELSAT 117 WEST B", "OBJECT_ID": "2016-038B", "EPOCH": "2025-12-09T11:12:09.715104", "MEAN_MOTION": 1.00274699, "ECCENTRICITY": 2.38e-05, "INCLINATION": 0.0078, "RA_OF_ASC_NODE": 125.2291, "ARG_OF_PERICENTER": 302.5176, "MEAN_ANOMALY": 61.7595, "EPHEMERIS_TYPE": 0, "CLASSIFICATION_TYPE": "U", "NORAD_CAT_ID": 41589, "ELEMENT_SET_NO": 999, "REV_AT_EPOCH": 3476, "BSTAR": 0, "MEAN_MOTION_DOT": -1e-07, "MEAN_MOTION_DDOT": 0}, "tle": {"line1": "1 41589U 16038B   25343.46677911 -.00000010  00000+0  00000+0 0  9993", "line2": "2 41589   0.0078 125.2291 0000238 302.5176  61.7595  1.00274699 34764"}}, "geometry": {"type": "Point", "coordinates": [-144.1467513586917, 0.007341034376604319]}}]}